NORAD_CAT_ID,OBJECT_NAME,OBJECT_TYPE,EPOCH,MEAN_MOTION,ECCENTRICITY,INCLINATION,RA_OF_ASC_NODE,ARG_OF_PERICENTER,MEAN_ANOMALY,BSTAR,MEAN_MOTION_DOT,MEAN_MOTION_DDOT,TLE_LINE0,TLE_LINE1,TLE_LINE2,SEMIMAJOR_AXIS,PERIOD,APOGEE,PERIGEE,DECAYED
51995.0,STARLINK-3636,PAYLOAD,2024-05-29 03:01:17,15.08848421,0.0001441,53.2177,55.1195,113.7602,246.3542,-1.6464e-05,-5.5e-06,0.0,0 STARLINK-3636,1 51995U 22025AR  24150.12590219 -.00000550  00000-0 -16464-4 0  9998,2 51995  53.2177  55.1195 0001441 113.7602 246.3542 15.08848421124365,6917.855,95.437,540.717,538.723,0.0
51995.0,STARLINK-3636,PAYLOAD,2024-05-29 22:05:56,15.08833301,0.0001361,53.2177,51.5519,87.6881,272.4267,5.2808e-05,5.52e-06,0.0,0 STARLINK-3636,1 51995U 22025AR  24150.92078911  .00000552  00000-0  52808-4 0  9998,2 51995  53.2177  51.5519 0001361  87.6881 272.4267 15.08833301122963,6917.901,95.438,540.707,538.824,0.0
51995.0,STARLINK-3636,PAYLOAD,2024-05-30 02:52:05,15.08834584,0.0001362,53.2178,50.6598,88.823,271.2918,5.8914e-05,6.5e-06,0.0,0 STARLINK-3636,1 51995U 22025AR  24151.11950876  .00000650  00000-0  58914-4 0  9992,2 51995  53.2178  50.6598 0001362  88.8230 271.2918 15.08834584124510,6917.897,95.438,540.704,538.82,0.0
51995.0,STARLINK-3636,PAYLOAD,2024-05-30 21:56:42,15.08844735,0.0001625,53.2192,47.0938,110.5503,249.5664,5.1417e-05,5.3e-06,0.0,0 STARLINK-3636,1 51995U 22025AR  24151.91438281  .00000530  00000-0  51417-4 0  9999,2 51995  53.2192  47.0938 0001625 110.5503 249.5664 15.08844735123112,6917.866,95.437,540.855,538.607,0.0
51995.0,STARLINK-3636,PAYLOAD,2024-05-31 02:42:52,15.08845074,0.0001563,53.219,46.2011,107.6693,252.447,5.0918e-05,5.23e-06,0.0,0 STARLINK-3636,1 51995U 22025AR  24152.11310216  .00000523  00000-0  50918-4 0  9996,2 51995  53.2190  46.2011 0001563 107.6693 252.4470 15.08845074124667,6917.865,95.437,540.811,538.649,0.0
51995.0,STARLINK-3636,PAYLOAD,2024-05-31 20:12:06,15.08835608,0.0001627,53.2207,42.9294,104.8823,255.2349,6.7884e-05,7.92e-06,0.0,0 STARLINK-3636,1 51995U 22025AR  24152.84174677  .00000792  00000-0  67884-4 0  9993,2 51995  53.2207  42.9294 0001627 104.8823 255.2349 15.08835608124777,6917.894,95.438,540.884,538.633,0.0
51995.0,STARLINK-3636,PAYLOAD,2024-05-31 21:47:30,15.08833244,0.0001428,53.2201,42.6319,102.2113,257.9039,5.0387e-05,5.14e-06,0.0,0 STARLINK-3636,1 51995U 22025AR  24152.90798868  .00000514  00000-0  50387-4 0  9996,2 51995  53.2201  42.6319 0001428 102.2113 257.9039 15.08833244123261,6917.901,95.438,540.754,538.778,0.0
51995.0,STARLINK-3636,PAYLOAD,2024-06-01 02:33:39,15.08834202,0.0001451,53.2195,41.7402,98.5251,261.5906,-1.7247e-05,-5.62e-06,0.0,0 STARLINK-3636,1 51995U 22025AR  24153.10671149 -.00000562  00000-0 -17247-4 0  9994,2 51995  53.2195  41.7402 0001451  98.5251 261.5906 15.08834202123294,6917.898,95.438,540.767,538.759,0.0
51995.0,STARLINK-3636,PAYLOAD,2024-06-02 02:24:26,15.08838035,0.0001131,53.2182,37.2815,87.2262,272.886,-2.7823e-05,-7.31e-06,0.0,0 STARLINK-3636,1 51995U 22025AR  24154.10031224 -.00000731  00000-0 -27823-4 0  9998,2 51995  53.2182  37.2815 0001131  87.2262 272.8860 15.08838035124967,6917.886,95.438,540.534,538.969,0.0
51995.0,STARLINK-3636,PAYLOAD,2024-06-02 08:45:59,15.08843115,0.0001194,53.2194,36.0926,88.5683,271.5446,3.8071e-05,3.18e-06,0.0,0 STARLINK-3636,1 51995U 22025AR  24154.36526664  .00000318  00000-0  38071-4 0  9999,2 51995  53.2194  36.0926 0001194  88.5683 271.5446 15.08843115125007,6917.871,95.437,540.562,538.91,0.0
51995.0,STARLINK-3636,PAYLOAD,2024-06-02 23:04:28,15.08830756,0.0001276,53.2199,33.4186,89.9845,270.1294,4.022e-05,3.52e-06,0.0,0 STARLINK-3636,1 51995U 22025AR  24154.96143648  .00000352  00000-0  40220-4 0  9999,2 51995  53.2199  33.4186 0001276  89.9845 270.1294 15.08830756123570,6917.909,95.438,540.656,538.891,0.0
51995.0,STARLINK-3636,PAYLOAD,2024-06-03 08:36:46,15.08837403,0.0001776,53.2194,31.6321,92.592,267.5275,6.5365e-05,7.52e-06,0.0,0 STARLINK-3636,1 51995U 22025AR  24155.35887318  .00000752  00000-0  65365-4 0  9993,2 51995  53.2194  31.6321 0001776  92.5920 267.5275 15.08837403125156,6917.888,95.438,540.982,538.525,0.0
51995.0,STARLINK-3636,PAYLOAD,2024-06-03 14:58:19,15.08836768,0.0001732,53.2192,30.4442,89.1054,271.0136,7.7226e-05,9.41e-06,0.0,0 STARLINK-3636,1 51995U 22025AR  24155.62383404  .00000941  00000-0  77226-4 0  9999,2 51995  53.2192  30.4442 0001732  89.1054 271.0136 15.08836768123671,6917.89,95.438,540.953,538.557,0.0
51995.0,STARLINK-3636,PAYLOAD,2024-06-04 08:27:32,15.08860306,3.57e-05,53.2205,27.172,51.0527,309.0497,1.6057e-05,-3.2e-07,0.0,0 STARLINK-3636,1 51995U 22025AR  24156.35245768 -.00000032  00000-0  16057-4 0  9997,2 51995  53.2205  27.1720 0000357  51.0527 309.0497 15.08860306125302,6917.818,95.436,539.93,539.436,0.0
51995.0,STARLINK-3636,PAYLOAD,2024-06-04 22:46:02,15.08842605,0.0001191,53.2184,24.4946,68.6726,291.4393,-5.2482e-05,-1.123e-05,0.0,0 STARLINK-3636,1 51995U 22025AR  24156.94863553 -.00001123  00000-0 -52482-4 0  9995,2 51995  53.2184  24.4946 0001191  68.6726 291.4393 15.08842605123871,6917.872,95.437,540.561,538.914,0.0
51995.0,STARLINK-3636,PAYLOAD,2024-06-05 00:21:24,15.08854266,0.0001019,53.2183,24.197,75.5407,284.5698,4.4969e-05,4.28e-06,0.0,0 STARLINK-3636,1 51995U 22025AR  24157.01486480  .00000428  00000-0  44969-4 0  9990,2 51995  53.2183  24.1970 0001019  75.5407 284.5698 15.08854266125404,6917.837,95.437,540.407,538.997,0.0
51995.0,STARLINK-3636,PAYLOAD,2024-06-05 14:39:53,15.08829156,0.0001505,53.2164,21.5222,82.8614,277.2549,-1.0904e-05,-4.61e-06,0.0,0 STARLINK-3636,1 51995U 22025AR  24157.61104085 -.00000461  00000-0 -10904-4 0  9995,2 51995  53.2164  21.5222 0001505  82.8614 277.2549 15.08829156123979,6917.914,95.438,540.82,538.737,0.0
51995.0,STARLINK-3636,PAYLOAD,2024-06-05 21:01:26,15.08830098,0.0001341,53.2157,20.3328,83.1068,277.0077,-5.9529e-06,-3.83e-06,0.0,0 STARLINK-3636,1 51995U 22025AR  24157.87600075 -.00000383  00000-0 -59529-5 0  9993,2 51995  53.2157  20.3328 0001341  83.1068 277.0077 15.08830098125535,6917.911,95.438,540.703,538.848,0.0
51995.0,STARLINK-3636,PAYLOAD,2024-06-06 08:09:08,15.08843575,0.0002138,53.2162,18.2521,78.5811,281.5421,-5.1951e-05,-1.115e-05,0.0,0 STARLINK-3636,1 51995U 22025AR  24158.33967617 -.00001115  00000-0 -51951-4 0  9997,2 51995  53.2162  18.2521 0002138  78.5811 281.5421 15.08843575125606,6917.869,95.437,541.214,538.255,0.0
51995.0,STARLINK-3636,PAYLOAD,2024-06-07 07:59:55,15.08844698,0.0003421,53.2188,13.7889,86.717,273.4213,1.4691e-05,-5.5e-07,0.0,0 STARLINK-3636,1 51995U 22025AR  24159.33327885 -.00000055  00000-0  14691-4 0  9996,2 51995  53.2188  13.7889 0003421  86.7170 273.4213 15.08844698124230,6917.866,95.437,542.098,537.364,0.0
51995.0,STARLINK-3636,PAYLOAD,2024-06-08 20:33:54,15.08736279,0.0001188,53.2176,6.9514,47.5695,312.5397,-0.00086461,-0.00013982,0.0,0 STARLINK-3636,1 51995U 22025AR  24160.85687897 -.00013982  00000-0 -86461-3 0  9994,2 51995  53.2176   6.9514 0001188  47.5695 312.5397 15.08736279125987,6918.197,95.444,540.884,539.241,0.0
51995.0,STARLINK-3636,PAYLOAD,2024-06-08 22:09:14,15.08770283,0.000307,53.2172,6.6524,62.3488,297.7816,-0.00043846,-7.247e-05,0.0,0 STARLINK-3636,1 51995U 22025AR  24160.92308876 -.00007247  00000-0 -43846-3 0  9996,2 51995  53.2172   6.6524 0003070  62.3488 297.7816 15.08770283124474,6918.093,95.442,542.082,537.835,0.0
51995.0,STARLINK-3636,PAYLOAD,2024-06-09 02:55:19,15.0884945,0.0002098,53.2182,5.761,91.0454,269.0778,8.1928e-05,1.016e-05,0.0,0 STARLINK-3636,1 51995U 22025AR  24161.12174986  .00001016  00000-0  81928-4 0  9992,2 51995  53.2182   5.7610 0002098  91.0454 269.0778 15.08849450126027,6917.852,95.437,541.168,538.265,0.0
51995.0,STARLINK-3636,PAYLOAD,2024-06-09 20:24:35,15.08829194,0.0002073,53.2179,2.4893,91.8396,268.2834,-4.4837e-05,-1.002e-05,0.0,0 STARLINK-3636,1 51995U 22025AR  24161.85041014 -.00001002  00000-0 -44837-4 0  9992,2 51995  53.2179   2.4893 0002073  91.8396 268.2834 15.08829194126135,6917.913,95.438,541.213,538.344,0.0
51995.0,STARLINK-3636,PAYLOAD,2024-06-10 05:56:53,15.0884104,0.0001174,53.2185,0.7085,89.6539,270.4588,1.7239e-05,-1.3e-07,0.0,0 STARLINK-3636,1 51995U 22025AR  24162.24784176 -.00000013  00000-0  17239-4 0  9995,2 51995  53.2185   0.7085 0001174  89.6539 270.4588 15.08841040126192,6917.877,95.437,540.554,538.93,0.0
51995.0,STARLINK-3636,PAYLOAD,2024-06-10 18:39:59,15.08834223,0.0001079,53.2182,358.328,83.8083,276.3032,-2.8546e-05,-7.42e-06,0.0,0 STARLINK-3636,1 51995U 22025AR  24162.77776827 -.00000742  00000-0 -28546-4 0  9990,2 51995  53.2182 358.3280 0001079  83.8083 276.3032 15.08834223126275,6917.898,95.438,540.509,539.017,0.0
51995.0,STARLINK-3636,PAYLOAD,2024-06-11 05:47:39,15.08850757,9.37e-05,53.2181,356.2455,71.1423,288.9671,8.6353e-05,1.087e-05,0.0,0 STARLINK-3636,1 51995U 22025AR  24163.24143281  .00001087  00000-0  86353-4 0  9996,2 51995  53.2181 356.2455 0000937  71.1423 288.9671 15.08850757124822,6917.848,95.437,540.361,539.064,0.0
51995.0,STARLINK-3636,PAYLOAD,2024-06-11 21:41:31,15.08844107,0.0001289,53.2195,353.2757,100.1585,259.9553,7.8863e-05,9.68e-06,0.0,0 STARLINK-3636,1 51995U 22025AR  24163.90384002  .00000968  00000-0  78863-4 0  9991,2 51995  53.2195 353.2757 0001289 100.1585 259.9553 15.08844107126441,6917.868,95.437,540.625,538.841,0.0
51995.0,STARLINK-3636,PAYLOAD,2024-06-12 18:21:33,15.08839394,0.0001212,53.2192,349.4055,83.6105,276.5025,-7.7156e-05,-1.516e-05,0.0,0 STARLINK-3636,1 51995U 22025AR  24164.76496958 -.00001516  00000-0 -77156-4 0  9996,2 51995  53.2192 349.4055 0001212  83.6105 276.5025 15.08839394126570,6917.882,95.438,540.586,538.909,0.0
51995.0,STARLINK-3636,PAYLOAD,2024-06-13 05:29:15,15.08840692,0.0001331,53.2196,347.3238,84.8882,275.2262,-5.9704e-05,-1.238e-05,0.0,0 STARLINK-3636,1 51995U 22025AR  24165.22864838 -.00001238  00000-0 -59704-4 0  9994,2 51995  53.2196 347.3238 0001331  84.8882 275.2262 15.08840692125123,6917.878,95.438,540.664,538.823,0.0
